GALAXY 37 (G-37)        
1 57493U 23112A   26192.46919784  .00000054  00000+0  00000+0 0  9992
2 57493   0.0143  65.5454 0001755  49.9738 215.7641  1.00270621 10786
LUDI TANCE-4 01A        
1 57624U 23120A   26192.01229502 -.00000159  00000+0  00000+0 0  9997
2 57624  15.0894 193.3825 0001284  29.1388 160.2583  1.00276685 10786
TJS-10                  
1 58204U 23169A   26191.72780163 -.00000243  00000+0  00000+0 0  9991
2 58204   2.6022  80.2089 0004035 115.5287  87.2484  1.00275155  9773
ZHONGXING-6E            
1 58253U 23172A   26191.73864204 -.00000352  00000+0  00000+0 0  9990
2 58253   0.0182  60.2036 0002174  50.2192 199.5949  1.00266240  9899
YAOGAN-41               
1 58582U 23197A   26192.51809266 -.00000352  00000+0  00000+0 0  9996
2 58582   3.0858 313.5121 0014282 198.5346  87.0602  1.00267564  9567
OVZON-3                 
1 58698U 24003A   26192.50543980  .00000057  00000+0  00000+0 0  9999
2 58698   0.0208  87.5928 0000273 158.8299 284.6341  1.00271795  7693
INSAT-3DS               
1 58990U 24033A   26192.51016895 -.00000150  00000+0  00000+0 0  9993
2 58990   0.1017 265.5451 0001046 224.5150  65.0901  1.00271328 47310
MERAH PUTIH 2           
1 58995U 24035A   26192.51642155 -.00000352  00000+0  00000+0 0  9998
2 58995   0.0128  74.8380 0001071  37.2675 116.1847  1.00272069  8832
TJS-11                  
1 59020U 24037A   26191.80307311 -.00000350  00000+0  00000+0 0  9991
2 59020   4.1692 327.3639 0002729 139.7725 223.1695  1.00263767  8825
HULIANWAN GAOGUI-01 (H*)
1 59069U 24040A   26192.50032647  .00000162  00000+0  00000+0 0  9993
2 59069   0.0746 330.6662 0001817  68.2395 104.2475  1.00270372  7578
EUTELSAT 36D            
1 59346U 24059A   26192.28688154  .00000000  00000+0  00000+0 0  9997
2 59346   0.0263  47.1018 0000292 207.5338 173.7167  1.00270138  8385
PAKSAT-MM1              
1 59915U 24104A   26192.50119314  .00000160  00000+0  00000+0 0  9999
2 59915   0.0366 170.6771 0001977 286.0331  51.2814  1.00268741  7773
ASTRA 1P (SES-24)       
1 60086U 24115A   26192.28358821  .00000126  00000+0  00000+0 0  9997
2 60086   0.0655 331.5375 0000453 245.0547 193.9008  1.00262077  7433
GOES 19                 
1 60133U 24119A   26192.47874634 -.00000242  00000+0  00000+0 0  9990
2 60133   0.0126 273.0807 0000571 292.1481 181.3045  1.00270047  7203
ZHONGXING-3A            
1 60179U 24122A   26192.29979494 -.00000307  00000+0  00000+0 0  9996
2 60179   0.0308 125.8357 0001406  36.8649 336.0175  1.00272911  7559
TURKSAT 6A              
1 60233U 24127A   26192.50197314  .00000152  00000+0  00000+0 0  9996
2 60233   0.0695 224.6578 0002844 303.7868 343.6639  1.00267524  7269
HULIANWAN GAOGUI-02 (H*)
1 60327U 24135A   26191.95365344 -.00000166  00000+0  00000+0 0  9993
2 60327   0.0464 352.2584 0006607  14.8189  58.1362  1.00272287  7734
ZHONGXING-4A            
1 60606U 24151A   26192.51879537 -.00000355  00000+0  00000+0 0  9998
2 60606   1.2538 270.5328 0000346 299.9950  23.8801  1.00269209  6997
HULIANWAN GAOGUI-03 (H*)
1 61503U 24181A   26192.05063831 -.00000234  00000+0  00000+0 0  9995
2 61503   0.0502 355.7827 0001022  98.3948 135.9030  1.00273281  7065
DSN-3 (KIRAMEKI-3)      
1 61733U 24198A   26192.45183627 -.00000244  00000+0  00000+0 0  9999
2 61733   0.0140 337.6872 0000799 161.5993  96.7848  1.00272785  6169
KOREASAT 6A             
1 61910U 24206A   26192.51642155  .00000000  00000+0  00000+0 0  9998
2 61910   0.0215  61.9682 0000637  31.0056 138.3798  1.00270518  6087
OPTUS-X (ADS-01)        
1 62006U 24212A   26192.49166860 -.00000138  00000+0  00000+0 0  9996
2 62006   0.0181  26.1409 0002360 127.2402 109.4151  1.00270286  6000
GSAT-N2 (GSAT-20)       
1 62028U 24214A   26192.54232955 -.00000013  00000+0  00000+0 0  9999
2 62028   0.0846 264.0946 0002669 140.8370 147.6922  1.00270442  6147
SXM-9                   
1 62259U 24234A   26192.26296141 -.00000198  00000+0  00000+0 0  9997
2 62259   0.0162 336.5062 0004948 340.9266 341.2470  1.00270631  5810
TJS-12                  
1 62374U 24246A   26192.45183510 -.00000224  00000+0  00000+0 0  9994
2 62374   0.6200 301.6019 0001779  97.2415 199.7265  1.00269880  5800
NUVIEW ALPHA            
1 62455U 24252B   26192.47718634 -.00000209  00000+0  00000+0 0  9997
2 62455   0.0442  26.2970 0000918  44.8674 306.9037  1.00270304  4066
AGILA                   
1 62456U 24252C   26192.49141954 -.00000175  00000+0  00000+0 0  9997
2 62456   0.0458 146.1776 0001273   1.6297 110.6651  1.00273562  5407
NUVIEW BRAVO            
1 62457U 24252D   26192.47718634 -.00000209  00000+0  00000+0 0  9999
2 62457   0.0690 163.6822 0001545 352.5921 221.7964  1.00271120  4033
THURAYA-4               
1 62483U 25001A   26192.31294627  .00000146  00000+0  00000+0 0  9994
2 62483   0.0187  67.4832 0000356 144.3190 234.3863  1.00270800  4424
SHIJIAN-25 (SJ-25)      
1 62485U 25002A   26191.61572458 -.00000346  00000+0  00000+0 0  9993
2 62485   5.1661  61.0114 0052136 175.2648  41.1794  1.00265093  5590
TJS-14                  
1 62804U 25017A   26192.49720645  .00000123  00000+0  00000+0 0  9996
2 62804   0.7301 297.3846 0001817 294.2630 255.1659  1.00274252  5512
SPAINSAT NG I           
1 62852U 25021A   26192.49928646  .00000157  00000+0  00000+0 0  9992
2 62852   0.0082  45.7595 0000224 212.1199 240.2547  1.00269938  4234
