OBJECT_NAME,OBJECT_ID,EPOCH,MEAN_MOTION,ECCENTRICITY,INCLINATION,RA_OF_ASC_NODE,ARG_OF_PERICENTER,MEAN_ANOMALY,EPHEMERIS_TYPE,CLASSIFICATION_TYPE,NORAD_CAT_ID,ELEMENT_SET_NO,REV_AT_EPOCH,BSTAR,MEAN_MOTION_DOT,MEAN_MOTION_DDOT
GALAXY 37 (G-37),2023-112A,2026-07-11T11:15:38.693376,1.00270621,.0001755,0.0143,65.5454,49.9738,215.7641,0,U,57493,999,1078,0,.54E-6,0
LUDI TANCE-4 01A,2023-120A,2026-07-11T00:17:42.289728,1.00276685,.0001284,15.0894,193.3825,29.1388,160.2583,0,U,57624,999,1078,0,-.159E-5,0
TJS-10,2023-169A,2026-07-10T17:28:02.060832,1.00275155,.0004035,2.6022,80.2089,115.5287,87.2484,0,U,58204,999,977,0,-.243E-5,0
ZHONGXING-6E,2023-172A,2026-07-10T17:43:38.672256,1.00266240,.0002174,0.0182,60.2036,50.2192,199.5949,0,U,58253,999,989,0,-.352E-5,0
YAOGAN-41,2023-197A,2026-07-11T12:26:03.205824,1.00267564,.0014282,3.0858,313.5121,198.5346,87.0602,0,U,58582,999,956,0,-.352E-5,0
OVZON-3,2024-003A,2026-07-11T12:07:49.998720,1.00271795,.0000273,0.0208,87.5928,158.8299,284.6341,0,U,58698,999,769,0,.57E-6,0
INSAT-3DS,2024-033A,2026-07-11T12:14:38.597280,1.00271328,.0001046,0.1017,265.5451,224.5150,65.0901,0,U,58990,999,4731,0,-.15E-5,0
MERAH PUTIH 2,2024-035A,2026-07-11T12:23:38.821920,1.00272069,.0001071,0.0128,74.8380,37.2675,116.1847,0,U,58995,999,883,0,-.352E-5,0
TJS-11,2024-037A,2026-07-10T19:16:25.516704,1.00263767,.0002729,4.1692,327.3639,139.7725,223.1695,0,U,59020,999,882,0,-.35E-5,0
HULIANWAN GAOGUI-01 (HG-01),2024-040A,2026-07-11T12:00:28.207008,1.00270372,.0001817,0.0746,330.6662,68.2395,104.2475,0,U,59069,999,757,0,.162E-5,0
EUTELSAT 36D,2024-059A,2026-07-11T06:53:06.565056,1.00270138,.0000292,0.0263,47.1018,207.5338,173.7167,0,U,59346,999,838,0,0,0
PAKSAT-MM1,2024-104A,2026-07-11T12:01:43.087296,1.00268741,.0001977,0.0366,170.6771,286.0331,51.2814,0,U,59915,999,777,0,.16E-5,0
ASTRA 1P (SES-24),2024-115A,2026-07-11T06:48:22.021344,1.00262077,.0000453,0.0655,331.5375,245.0547,193.9008,0,U,60086,999,743,0,.126E-5,0
GOES 19,2024-119A,2026-07-11T11:29:23.683776,1.00270047,.0000571,0.0126,273.0807,292.1481,181.3045,0,U,60133,999,720,0,-.242E-5,0
ZHONGXING-3A,2024-122A,2026-07-11T07:11:42.282816,1.00272911,.0001406,0.0308,125.8357,36.8649,336.0175,0,U,60179,999,755,0,-.307E-5,0
TURKSAT 6A,2024-127A,2026-07-11T12:02:50.479296,1.00267524,.0002844,0.0695,224.6578,303.7868,343.6639,0,U,60233,999,726,0,.152E-5,0
HULIANWAN GAOGUI-02 (HG-02),2024-135A,2026-07-10T22:53:15.657216,1.00272287,.0006607,0.0464,352.2584,14.8189,58.1362,0,U,60327,999,773,0,-.166E-5,0
ZHONGXING-4A,2024-151A,2026-07-11T12:27:03.919968,1.00269209,.0000346,1.2538,270.5328,299.9950,23.8801,0,U,60606,999,699,0,-.355E-5,0
HULIANWAN GAOGUI-03 (HG-03),2024-181A,2026-07-11T01:12:55.149984,1.00273281,.0001022,0.0502,355.7827,98.3948,135.9030,0,U,61503,999,706,0,-.234E-5,0
DSN-3 (KIRAMEKI-3),2024-198A,2026-07-11T10:50:38.653728,1.00272785,.0000799,0.0140,337.6872,161.5993,96.7848,0,U,61733,999,616,0,-.244E-5,0
KOREASAT 6A,2024-206A,2026-07-11T12:23:38.821920,1.00270518,.0000637,0.0215,61.9682,31.0056,138.3798,0,U,61910,999,608,0,0,0
OPTUS-X (ADS-01),2024-212A,2026-07-11T11:48:00.167040,1.00270286,.000236,0.0181,26.1409,127.2402,109.4151,0,U,62006,999,600,0,-.138E-5,0
GSAT-N2 (GSAT-20),2024-214A,2026-07-11T13:00:57.273120,1.00270442,.0002669,0.0846,264.0946,140.8370,147.6922,0,U,62028,999,614,0,-.13E-6,0
SXM-9,2024-234A,2026-07-11T06:18:39.865824,1.00270631,.0004948,0.0162,336.5062,340.9266,341.2470,0,U,62259,999,581,0,-.198E-5,0
TJS-12,2024-246A,2026-07-11T10:50:38.552640,1.00269880,.0001779,0.6200,301.6019,97.2415,199.7265,0,U,62374,999,580,0,-.224E-5,0
NUVIEW ALPHA,2024-252B,2026-07-11T11:27:08.899776,1.00270304,.0000918,0.0442,26.2970,44.8674,306.9037,0,U,62455,999,406,0,-.209E-5,0
AGILA,2024-252C,2026-07-11T11:47:38.648256,1.00273562,.0001273,0.0458,146.1776,1.6297,110.6651,0,U,62456,999,540,0,-.175E-5,0
NUVIEW BRAVO,2024-252D,2026-07-11T11:27:08.899776,1.00271120,.0001545,0.0690,163.6822,352.5921,221.7964,0,U,62457,999,403,0,-.209E-5,0
THURAYA-4,2025-001A,2026-07-11T07:30:38.557728,1.00270800,.0000356,0.0187,67.4832,144.3190,234.3863,0,U,62483,999,442,0,.146E-5,0
SHIJIAN-25 (SJ-25),2025-002A,2026-07-10T14:46:38.603712,1.00265093,.0052136,5.1661,61.0114,175.2648,41.1794,0,U,62485,999,559,0,-.346E-5,0
TJS-14,2025-017A,2026-07-11T11:55:58.637280,1.00274252,.0001817,0.7301,297.3846,294.2630,255.1659,0,U,62804,999,551,0,.123E-5,0
SPAINSAT NG I,2025-021A,2026-07-11T11:58:58.350144,1.00269938,.0000224,0.0082,45.7595,212.1199,240.2547,0,U,62852,999,423,0,.157E-5,0
